DELTA 2 R/B(1)          
1 20453U 90008B   25356.24593445  .00048160  00000+0  75067-3 0  9994
2 20453  35.6081 319.1127 0110813 264.7533  94.0546 15.45954332914101
COSMOS 2058             
1 20465U 90010A   25357.75445926  .00005080  00000+0  30590-3 0  9993
2 20465  82.4708 122.1970 0009334 230.2812 129.7595 15.10574625930777
SL-14 R/B               
1 20466U 90010B   25357.67250758  .00000440  00000+0  50514-4 0  9996
2 20466  82.5022 338.7785 0019579 185.8045 174.2946 14.83480949917215
SL-14 R/B               
1 20511U 90018B   25357.81973674  .00000492  00000+0  58860-4 0  9999
2 20511  82.5220 294.0090 0016029 347.3264  12.7544 14.82057579911340
HST                     
1 20580U 90037B   25357.63325528  .00006345  00000+0  21651-3 0  9995
2 20580  28.4656 198.3342 0002371   8.9464 351.1173 15.28183219761669
SL-16 R/B               
1 20625U 90046B   25357.56185389 -.00000191  00000+0 -74096-4 0  9993
2 20625  70.9992  97.7949 0012162  54.4664 305.7591 14.14997863837627
COSMOS 2084             
1 20663U 90055A   25357.73011468  .00002727  00000+0  20327-3 0  9992
2 20663  62.7889 234.5438 0029958 176.1490 183.9846 15.05080344924889
SL-6 R/B(2)             
1 20666U 90055D   25356.81294978  .00001882  00000+0  15311-3 0  9990
2 20666  62.7811 155.1870 0013833 315.6810  44.3181 15.03117285926636
SL-8 R/B                
1 20775U 90078B   25357.16720362  .00017042  00000+0  52646-3 0  9993
2 20775  82.9061 319.9730 0370405 270.7989  85.0813 14.86307679797922
SL-8 R/B                
1 21088U 91006B   25357.63764580  .00000115  00000+0  10023-3 0  9991
2 21088  82.9416 226.6068 0021230 247.4091 130.6742 13.77492161753601
OKEAN-3                 
1 21397U 91039A   25357.19304019  .00002697  00000+0  19199-3 0  9998
2 21397  82.5168  50.9297 0013601 225.9950 134.0156 15.04182442853534
COSMOS 2151             
1 21422U 91042A   25357.76568728  .00001672  00000+0  13317-3 0  9991
2 21422  82.4965 156.8773 0011708 320.9809  39.0569 14.99726001851816
